*******************************************************************************
 Revised: Jul 11, 2019                  EM-L2                              3012
                               (Earth-Moon Lagrange 2)       

  #1) The Earth-Moon Lagrange-2 point (EM-L2) is an equilibirium location where
       the Moon's gravitational field partially counters that of the Earth.

  #2) This point is past the Moon on the Earth-Moon line, about 116.783% of 
       the EM distance (416300 to 475000 km from Earth center, averaging 
       ~449600 km), or 16.783% of the EM distance from the Moon, in the 
       direction away from the Earth (59800 to 68300 km from Moon center, 
       averaging ~64600 km).

  #4) EM-L2 is an unstable equilibrium point. This means an object at that 
       location will remain there unless disturbed, whereupon it will move 
       away.  In practice, there will always be some disturbance. 

 Time-span available: 1900-Jan-01 to 2151-Jan-01
*******************************************************************************


*******************************************************************************
Ephemeris / WWW_USER Thu Feb 10 17:54:36 2022 Pasadena, USA      / Horizons
*******************************************************************************
Target body name: EM-L2 (3012)                    {source: Earth-Moon_L2}
Center body name: Earth (399)                     {source: DE441}
Center-site name: BODY CENTER
*******************************************************************************
Start time      : A.D. 2020-Jan-01 00:00:00.0000 TDB
Stop  time      : A.D. 2022-Mar-01 00:00:00.0000 TDB
Step-size       : 360 minutes
*******************************************************************************
Center geodetic : 0.00000000,0.00000000,0.0000000 {E-lon(deg),Lat(deg),Alt(km)}
Center cylindric: 0.00000000,0.00000000,0.0000000 {E-lon(deg),Dxy(km),Dz(km)}
Center radii    : 6378.1 x 6378.1 x 6356.8 km     {Equator, meridian, pole}    
Output units    : AU-D
Output type     : GEOMETRIC cartesian states
Output format   : 2 (position and velocity)
EOP file        : eop.220209.p220505
EOP coverage    : DATA-BASED 1962-JAN-20 TO 2022-FEB-09. PREDICTS-> 2022-MAY-04
Reference frame : ICRF
*******************************************************************************
JDTDB
   X     Y     Z
   VX    VY    VZ
*******************************************************************************
$$SOE
2459435.750000000 = A.D. 2021-Aug-09 06:00:00.0000 TDB 
 X =-2.447828752710678E-03 Y = 1.484185039054982E-03 Z = 9.237378005355287E-04
 VX=-3.743856065964159E-04 VY=-5.377610510462108E-04 VZ=-2.207207357581642E-04
2459436.000000000 = A.D. 2021-Aug-09 12:00:00.0000 TDB 
 X =-2.537373017223919E-03 Y = 1.347408545256838E-03 Z = 8.670784083139585E-04
 VX=-3.417310636339591E-04 VY=-5.561711364368045E-04 VZ=-2.324433204564712E-04
2459436.250000000 = A.D. 2021-Aug-09 18:00:00.0000 TDB 
 X =-2.618579514420332E-03 Y = 1.206242908713585E-03 Z = 8.075737366190923E-04
 VX=-3.076995392663443E-04 VY=-5.728601190404750E-04 VZ=-2.434747977249347E-04
2459436.500000000 = A.D. 2021-Aug-10 00:00:00.0000 TDB 
 X =-2.691116374515435E-03 Y = 1.061128763099223E-03 Z = 7.454026283130271E-04
 VX=-2.723913190072790E-04 VY=-5.877459458188383E-04 VZ=-2.537669075614328E-04
2459436.750000000 = A.D. 2021-Aug-10 06:00:00.0000 TDB 
 X =-2.754677749342449E-03 Y = 9.125266214602278E-04 Z = 6.807557769898609E-04
 VX=-2.359142459064009E-04 VY=-6.007517374902430E-04 VZ=-2.632731570473692E-04
2459437.000000000 = A.D. 2021-Aug-10 12:00:00.0000 TDB 
 X =-2.808985665477593E-03 Y = 7.609155065549588E-04 Z = 6.138352455949504E-04
 VX=-1.983834186505416E-04 VY=-6.118063949737979E-04 VZ=-2.719491367321952E-04
2459437.250000000 = A.D. 2021-Aug-10 18:00:00.0000 TDB 
 X =-2.853791793125957E-03 Y = 6.067914323845350E-04 Z = 5.448539064780713E-04
 VX=-1.599208200164414E-04 VY=-6.208451821700796E-04 VZ=-2.797528321446121E-04
2459437.500000000 = A.D. 2021-Aug-11 00:00:00.0000 TDB 
 X =-2.888879113752618E-03 Y = 4.506657437431615E-04 Z = 4.740348045637375E-04
 VX=-1.206548790251671E-04 VY=-6.278102779141824E-04 VZ=-2.866449267552484E-04
2459437.750000000 = A.D. 2021-Aug-11 06:00:00.0000 TDB 
 X =-2.914063470410796E-03 Y = 2.930633223035618E-04 Z = 4.016104462106248E-04
 VX=-8.071997116929870E-05 VY=-6.326512907204768E-04 VZ=-2.925890929406122E-04
2459438.000000000 = A.D. 2021-Aug-11 12:00:00.0000 TDB 
 X =-2.929194985927859E-03 Y = 1.345206692632762E-04 Z = 3.278220171625068E-04
 VX=-4.025586200380158E-05 VY=-6.353257307006190E-04 VZ=-2.975522677979055E-04
2459438.250000000 = A.D. 2021-Aug-11 18:00:00.0000 TDB 
 X =-2.934159335524110E-03 Y =-2.441612413862335E-05 Z = 2.529185337327453E-04
 VX= 5.928999552641880E-07 VY=-6.357994339752556E-04 VZ=-3.015049110317062E-04
2459438.500000000 = A.D. 2021-Aug-12 00:00:00.0000 TDB 
 X =-2.928878861990798E-03 Y =-1.831935058764916E-04 Z = 1.771559320056323E-04
 VX= 4.167763454560858E-05 VY=-6.340469359134806E-04 VZ=-3.044212425763449E-04
2459438.750000000 = A.D. 2021-Aug-12 06:00:00.0000 TDB 
 X =-2.913313523204219E-03 Y =-3.412526790105293E-04 Z = 1.007961003689813E-04
 VX= 8.284621883198194E-05 VY=-6.300517904679068E-04 VZ=-3.062794580472691E-04
2459439.000000000 = A.D. 2021-Aug-12 12:00:00.0000 TDB 
 X =-2.887461663434896E-03 Y =-4.980318904760321E-04 Z = 2.410586110793596E-05
 VX= 1.239438067521434E-04 VY=-6.238068339598480E-04 VZ=-3.070619206027407E-04
2459439.250000000 = A.D. 2021-Aug-12 18:00:00.0000 TDB 
 X =-2.851360601580257E-03 Y =-6.529687787793405E-04 Z =-5.264409291027517E-05
 VX= 1.648135730215899E-04 VY=-6.153143925021531E-04 VZ=-3.067553282263596E-04
2459439.500000000 = A.D. 2021-Aug-13 00:00:00.0000 TDB 
 X =-2.805087031044044E-03 Y =-8.055027665007084E-04 Z =-1.291803002381199E-04
 VX= 2.052974750572653E-04 VY=-6.045864330885977E-04 VZ=-3.053508558728401E-04
2459439.750000000 = A.D. 2021-Aug-13 06:00:00.0000 TDB 
 X =-2.748757227477598E-03 Y =-9.550774835959489E-04 Z =-2.052276652201798E-04
 VX= 2.452370272544420E-04 VY=-5.916446590610800E-04 VZ=-3.028442722821460E-04
2459440.000000000 = A.D. 2021-Aug-13 12:00:00.0000 TDB 
 X =-2.682527061946844E-03 Y =-1.101143207730546E-03 Z =-2.805106184096438E-04
 VX= 2.844740825248696E-04 VY=-5.765205511403288E-04 VZ=-2.992360315574187E-04
2459440.250000000 = A.D. 2021-Aug-13 18:00:00.0000 TDB 
 X =-2.606591818267532E-03 Y =-1.243159308227442E-03 Z =-3.547542967562074E-04
 VX= 3.228516167299823E-04 VY=-5.592553555681933E-04 VZ=-2.945313398255481E-04
2459440.500000000 = A.D. 2021-Aug-14 00:00:00.0000 TDB 
 X =-2.521185814265191E-03 Y =-1.380596680615498E-03 Z =-4.276857373920274E-04
 VX= 3.602145123004169E-04 VY=-5.399000210586354E-04 VZ=-2.887401974390663E-04
2459440.750000000 = A.D. 2021-Aug-14 06:00:00.0000 TDB 
 X =-2.426581827550915E-03 Y =-1.512940159184930E-03 Z =-4.990350789620732E-04
 VX= 3.964103380321467E-04 VY=-5.185150861780731E-04 VZ=-2.818774172206926E-04
2459441.000000000 = A.D. 2021-Aug-14 12:00:00.0000 TDB 
 X =-2.323090327082734E-03 Y =-1.639690895354207E-03 Z =-5.685367645709605E-04
 VX= 4.312901226417447E-04 VY=-4.951705186622474E-04 VZ=-2.739626192111966E-04
2459441.250000000 = A.D. 2021-Aug-14 18:00:00.0000 TDB 
 X =-2.211058512333349E-03 Y =-1.760368689978121E-03 Z =-6.359307405189309E-04
 VX= 4.647091200779282E-04 VY=-4.699455077984758E-04 VZ=-2.650202022912505E-04
2459441.500000000 = A.D. 2021-Aug-15 00:00:00.0000 TDB 
 X =-2.090869162330415E-03 Y =-1.874514267966314E-03 Z =-7.009636450730386E-04
 VX= 4.965275649471540E-04 VY=-4.429282106025542E-04 VZ=-2.550792928473972E-04
2459441.750000000 = A.D. 2021-Aug-15 06:00:00.0000 TDB 
 X =-1.962939297240603E-03 Y =-1.981691483698772E-03 Z =-7.633899815342193E-04
 VX= 5.266114164925404E-04 VY=-4.142154520206955E-04 VZ=-2.441736704527007E-04
2459442.000000000 = A.D. 2021-Aug-15 12:00:00.0000 TDB 
 X =-1.827718655554781E-03 Y =-2.081489445725340E-03 Z =-8.229732698259726E-04
 VX= 5.548330895084877E-04 VY=-3.839123789102403E-04 VZ=-2.323416702858735E-04
2459442.250000000 = A.D. 2021-Aug-15 18:00:00.0000 TDB 
 X =-1.685687990378393E-03 Y =-2.173524549108146E-03 Z =-8.794871707262985E-04
 VX= 5.810721702352961E-04 VY=-3.521320670438972E-04 VZ=-2.196260617560531E-04
2459442.500000000 = A.D. 2021-Aug-16 00:00:00.0000 TDB 
 X =-1.537357188867119E-03 Y =-2.257442403532523E-03 Z =-9.327165767045384E-04
 VX= 6.052161148321245E-04 VY=-3.189950800459075E-04 VZ=-2.060739025690278E-04
2459442.750000000 = A.D. 2021-Aug-16 06:00:00.0000 TDB 
 X =-1.383263219541153E-03 Y =-2.332919644996718E-03 Z =-9.824586631094702E-04
 VX= 6.271609273091685E-04 VY=-2.846289788373502E-04 VZ=-1.917363673054731E-04
2459443.000000000 = A.D. 2021-Aug-16 12:00:00.0000 TDB 
 X =-1.223967913085349E-03 Y =-2.399665618527351E-03 Z =-1.028523893204998E-03
 VX= 6.468118129627506E-04 VY=-2.491677801575368E-04 VZ=-1.766685494373140E-04
2459443.250000000 = A.D. 2021-Aug-16 18:00:00.0000 TDB 
 X =-1.060055583350090E-03 Y =-2.457423919014272E-03 Z =-1.070736970277075E-03
 VX= 6.640838024362614E-04 VY=-2.127513627910856E-04 VZ=-1.609292357059901E-04
2459443.500000000 = A.D. 2021-Aug-17 00:00:00.0000 TDB 
 X =-8.921304966136735E-04 Y =-2.505973776956395E-03 Z =-1.108937729773028E-03
 VX= 6.789023405030465E-04 VY=-1.755248205153913E-04 VZ=-1.445806518488444E-04
2459443.750000000 = A.D. 2021-Aug-17 06:00:00.0000 TDB 
 X =-7.208141987693389E-04 Y =-2.545131275737870E-03 Z =-1.142981964205151E-03
 VX= 6.912038326586073E-04 VY=-1.376377613881562E-04 VZ=-1.276881788751967E-04
2459444.000000000 = A.D. 2021-Aug-17 12:00:00.0000 TDB 
 X =-5.467427119398043E-04 Y =-2.574750387062629E-03 Z =-1.172742173389022E-03
 VX= 7.009361417244835E-04 VY=-9.924355390427188E-05 VZ=-1.103200394272598E-04
2459444.250000000 = A.D. 2021-Aug-17 18:00:00.0000 TDB 
 X =-3.705636140827746E-04 Y =-2.594723811439016E-03 Z =-1.198108232525847E-03
 VX= 7.080590258371173E-04 VY=-6.049852162291096E-05 VZ=-9.254695421570170E-05
